*******************************************************************************
JPL/HORIZONS                     (2021 GW16)               2021-May-28 11:55:35
Rec #:50529452 (+COV) Soln.date: 2021-Apr-17_10:42:02        # obs: 13 (1 days)
 
IAU76/J2000 helio. ecliptic osc. elements (au, days, deg., period=Julian yrs):
 
  EPOCH=  2459320.5 ! 2021-Apr-16.00 (TDB)         Residual RMS= .53108
   EC= .4626584639147531   QR= .824798712087722    TP= 2459273.1917358558
   OM= 24.96028727917874   W=  115.8519231539232   IN= 6.34904673819465
   A= 1.534961763977373    MA= 24.51854782916268   ADIST= 2.245124815867025
   PER= 1.90175            N= .518271968           ANGMOM= .01889413
   DAN= 1.51129            DDN= 1.00388            L= 140.9507969
   B= 5.7114273            MOID= .00018214         TP= 2021-Feb-27.6917358558
 
Asteroid physical parameters (km, seconds, rotational period in hours):
   GM= n.a.                RAD= n.a.               ROTPER= n.a.
   H= 30.1                 G= .150                 B-V= n.a.
                           ALBEDO= n.a.            STYP= n.a.
 
ASTEROID comments: 
1: soln ref.= JPL#1, OCC=7
2: source=ORB
*******************************************************************************
 
 
*******************************************************************************
Ephemeris / WWW_USER Fri May 28 11:55:36 2021 Pasadena, USA      / Horizons    
*******************************************************************************
Target body name: (2021 GW16)                     {source: JPL#1}
Center body name: Solar System Barycenter (0)     {source: DE441}
Center-site name: BODYCENTRIC
*******************************************************************************
Start time      : A.D. 2014-Jan-01 00:00:00.0000 UT      
Stop  time      : A.D. 2023-Jan-01 00:00:00.0000 UT      
Step-size       : 1440 minutes
*******************************************************************************
Target pole/equ : No model available
Target radii    : (unavailable)                                                
Center geodetic : 0.00000000,0.00000000,0.0000000 {E-lon(deg),Lat(deg),Alt(km)}
Center cylindric: 0.00000000,0.00000000,0.0000000 {E-lon(deg),Dxy(km),Dz(km)}
Center pole/equ : ICRF
Center radii    : (undefined)                                                  
Target primary  : Sun
Vis. interferer : None
Rel. light bend : Sun                             {source: DE441}
Rel. lght bnd GM: 1.3271E+11 km^3/s^2                                          
Small-body perts: Yes                             {source: SB441-N16}
Atmos refraction: NO (AIRLESS)
RA format       : DEG
Time format     : CAL 
EOP file        : eop.210527.p210818                                           
EOP coverage    : DATA-BASED 1962-JAN-20 TO 2021-MAY-27. PREDICTS-> 2021-AUG-17
Units conversion: 1 au= 149597870.700 km, c= 299792.458 km/s, 1 day= 86400.0 s 
Table cut-offs 1: Elevation (-90.0deg=NO ),Airmass     n.a.    , Daylight (NO )
Table cut-offs 2: Solar elongation (  0.0,180.0=NO ),Local Hour Angle( 0.0=NO )
Table cut-offs 3: RA/DEC angular rate (     0.0=NO )                           
*******************************************************************************
Initial IAU76/J2000 heliocentric ecliptic osculating elements (au, days, deg.):
  EPOCH=  2459320.5 ! 2021-Apr-16.00 (TDB)         Residual RMS= .53108        
   EC= .4626584639147531   QR= .824798712087722    TP= 2459273.1917358558      
   OM= 24.96028727917874   W=  115.8519231539232   IN= 6.34904673819465        
  Equivalent ICRF heliocentric cartesian coordinates (au, au/d):
   X=-9.079917493709274E-01  Y=-4.059349410611001E-01  Z=-1.782716720887432E-01
  VX= 2.246206219531728E-03 VY=-1.714046027774484E-02 VZ=-9.699506258381403E-03
Asteroid physical parameters (km, seconds, rotational period in hours):        
   GM= n.a.                RAD= n.a.               ROTPER= n.a.                
   H= 30.1                 G= .150                 B-V= n.a.                   
                           ALBEDO= n.a.            STYP= n.a.                  
*******************************************************************************
 Date__(UT)__HR:MN                delta     GlxLon     GlxLat
*************************************************************
$$SOE
 2016-Dec-04 00:00     2.8325403205E+08  13.981939 -19.840536
 2016-Dec-05 00:00     2.8359511861E+08  14.137128 -20.090443
 2016-Dec-06 00:00     2.8393113215E+08  14.292443 -20.339624
 2016-Dec-07 00:00     2.8426207621E+08  14.447896 -20.588088
 2016-Dec-08 00:00     2.8458795427E+08  14.603498 -20.835845
 2016-Dec-09 00:00     2.8490876977E+08  14.759262 -21.082904
 2016-Dec-10 00:00     2.8522452613E+08  14.915197 -21.329275
 2016-Dec-11 00:00     2.8553522674E+08  15.071316 -21.574967
 2016-Dec-12 00:00     2.8584087493E+08  15.227629 -21.819989
 2016-Dec-13 00:00     2.8614147399E+08  15.384149 -22.064349
 2016-Dec-14 00:00     2.8643702719E+08  15.540885 -22.308058
 2016-Dec-15 00:00     2.8672753775E+08  15.697851 -22.551122
 2016-Dec-16 00:00     2.8701300884E+08  15.855056 -22.793551
 2016-Dec-17 00:00     2.8729344359E+08  16.012513 -23.035354
 2016-Dec-18 00:00     2.8756884510E+08  16.170232 -23.276539
 2016-Dec-19 00:00     2.8783921641E+08  16.328226 -23.517113
 2016-Dec-20 00:00     2.8810456053E+08  16.486506 -23.757086
 2016-Dec-21 00:00     2.8836488041E+08  16.645083 -23.996465
 2016-Dec-22 00:00     2.8862017897E+08  16.803969 -24.235258
 2016-Dec-23 00:00     2.8887045907E+08  16.963175 -24.473473
 2016-Dec-24 00:00     2.8911572352E+08  17.122713 -24.711118
 2016-Dec-25 00:00     2.8935597511E+08  17.282594 -24.948200
 2016-Dec-26 00:00     2.8959121656E+08  17.442831 -25.184727
 2016-Dec-27 00:00     2.8982145053E+08  17.603436 -25.420706
 2016-Dec-28 00:00     2.9004667966E+08  17.764419 -25.656145
 2016-Dec-29 00:00     2.9026690653E+08  17.925793 -25.891050
 2016-Dec-30 00:00     2.9048213366E+08  18.087571 -26.125430
 2016-Dec-31 00:00     2.9069236352E+08  18.249763 -26.359290
 2017-Jan-01 00:00     2.9089760090E+08  18.412384 -26.592641
 2017-Jan-02 00:00     2.9109784341E+08  18.575443 -26.825485
 2017-Jan-03 00:00     2.9129309579E+08  18.738953 -27.057829
 2017-Jan-04 00:00     2.9148336031E+08  18.902927 -27.289682
 2017-Jan-05 00:00     2.9166863918E+08  19.067378 -27.521050
 2017-Jan-06 00:00     2.9184893458E+08  19.232317 -27.751939
 2017-Jan-07 00:00     2.9202424862E+08  19.397758 -27.982355
 2017-Jan-08 00:00     2.9219458337E+08  19.563714 -28.212306
 2017-Jan-09 00:00     2.9235994082E+08  19.730196 -28.441796
 2017-Jan-10 00:00     2.9252032295E+08  19.897219 -28.670833
 2017-Jan-11 00:00     2.9267573164E+08  20.064795 -28.899422
 2017-Jan-12 00:00     2.9282616875E+08  20.232937 -29.127569
 2017-Jan-13 00:00     2.9297163607E+08  20.401659 -29.355280
 2017-Jan-14 00:00     2.9311213533E+08  20.570974 -29.582561
 2017-Jan-15 00:00     2.9324766823E+08  20.740896 -29.809417
 2017-Jan-16 00:00     2.9337823638E+08  20.911438 -30.035855
 2017-Jan-17 00:00     2.9350384136E+08  21.082614 -30.261879
 2017-Jan-18 00:00     2.9362448469E+08  21.254439 -30.487494
 2017-Jan-19 00:00     2.9374016783E+08  21.426925 -30.712708
 2017-Jan-20 00:00     2.9385089218E+08  21.600088 -30.937523
 2017-Jan-21 00:00     2.9395665910E+08  21.773942 -31.161946
 2017-Jan-22 00:00     2.9405746988E+08  21.948501 -31.385982
 2017-Jan-23 00:00     2.9415332575E+08  22.123781 -31.609636
 2017-Jan-24 00:00     2.9424422789E+08  22.299795 -31.832912
 2017-Jan-25 00:00     2.9433017744E+08  22.476560 -32.055816
 2017-Jan-26 00:00     2.9441117545E+08  22.654090 -32.278352
 2017-Jan-27 00:00     2.9448722294E+08  22.832400 -32.500525
 2017-Jan-28 00:00     2.9455832086E+08  23.011507 -32.722339
 2017-Jan-29 00:00     2.9462447010E+08  23.191427 -32.943798
 2017-Jan-30 00:00     2.9468567151E+08  23.372174 -33.164908
 2017-Jan-31 00:00     2.9474192586E+08  23.553766 -33.385672
 2017-Feb-01 00:00     2.9479323389E+08  23.736218 -33.606095
 2017-Feb-02 00:00     2.9483959626E+08  23.919548 -33.826181
 2017-Feb-03 00:00     2.9488101357E+08  24.103772 -34.045933
 2017-Feb-04 00:00     2.9491748638E+08  24.288907 -34.265356
 2017-Feb-05 00:00     2.9494901519E+08  24.474971 -34.484454
 2017-Feb-06 00:00     2.9497560043E+08  24.661981 -34.703230
 2017-Feb-07 00:00     2.9499724248E+08  24.849955 -34.921688
 2017-Feb-08 00:00     2.9501394167E+08  25.038911 -35.139831
 2017-Feb-09 00:00     2.9502569825E+08  25.228866 -35.357663
 2017-Feb-10 00:00     2.9503251243E+08  25.419841 -35.575188
 2017-Feb-11 00:00     2.9503438436E+08  25.611852 -35.792408
 2017-Feb-12 00:00     2.9503131414E+08  25.804921 -36.009327
 2017-Feb-13 00:00     2.9502330179E+08  25.999065 -36.225947
 2017-Feb-14 00:00     2.9501034729E+08  26.194304 -36.442273
 2017-Feb-15 00:00     2.9499245056E+08  26.390659 -36.658306
 2017-Feb-16 00:00     2.9496961146E+08  26.588149 -36.874050
 2017-Feb-17 00:00     2.9494182979E+08  26.786796 -37.089507
 2017-Feb-18 00:00     2.9490910530E+08  26.986619 -37.304679
 2017-Feb-19 00:00     2.9487143767E+08  27.187640 -37.519570
 2017-Feb-20 00:00     2.9482882653E+08  27.389881 -37.734181
 2017-Feb-21 00:00     2.9478127146E+08  27.593363 -37.948515
 2017-Feb-22 00:00     2.9472877198E+08  27.798109 -38.162575
 2017-Feb-23 00:00     2.9467132753E+08  28.004141 -38.376361
 2017-Feb-24 00:00     2.9460893753E+08  28.211481 -38.589876
 2017-Feb-25 00:00     2.9454160132E+08  28.420154 -38.803121
 2017-Feb-26 00:00     2.9446931817E+08  28.630183 -39.016099
 2017-Feb-27 00:00     2.9439208733E+08  28.841591 -39.228811
 2017-Feb-28 00:00     2.9430990797E+08  29.054403 -39.441258
 2017-Mar-01 00:00     2.9422277920E+08  29.268645 -39.653442
 2017-Mar-02 00:00     2.9413070009E+08  29.484340 -39.865363
